CUTE-1 (CO-55)          
1 27844U 03031E   19250.48971574  .00000035  00000-0  35440-4 0  9992
2 27844  98.6852 257.4974 0010343 151.3344 208.8405 14.22192904839770
CUBESAT XI-IV (CO-57)   
1 27848U 03031J   19250.01226644  .00000024  00000-0  30783-4 0  9999
2 27848  98.6927 257.5440 0009997 163.8247 196.3251 14.21786230839555
CUBESAT XI-V            
1 28895U 05043F   19250.38066024  .00000104  00000-0  28786-4 0  9990
2 28895  97.9705  30.3973 0018189  96.9171 263.4102 14.63687804739291
CUTE-1.7+APD II (CO-65) 
1 32785U 08021C   19250.49747841  .00000170  00000-0  23981-4 0  9992
2 32785  97.5535 246.4150 0013074   2.2714 357.8560 14.88339726615708
AAUSAT-II               
1 32788U 08021F   19250.04731623  .00000730  00000-0  72103-4 0  9999
2 32788  97.4965 262.2216 0010194 293.7646  66.2505 14.94785618616924
DELFI-C3 (DO-64)        
1 32789U 08021G   19250.82284471  .00001218  00000-0  85073-4 0  9992
2 32789  97.4577 298.0155 0011682 200.7341 159.3414 15.07089339619182
SEEDS II (CO-66)        
1 32791U 08021J   19249.97699503  .00000207  00000-0  26332-4 0  9995
2 32791  97.5301 251.9691 0012694 337.1554  22.9099 14.90862071616071
SWISSCUBE               
1 35932U 09051B   19250.46568929  .00000105  00000-0  34724-4 0  9993
2 35932  98.5960  58.8395 0006448 279.3301  80.7166 14.56306136528532
BEESAT-1                
1 35933U 09051C   19250.46379632  .00000099  00000-0  33286-4 0  9999
2 35933  98.5981  60.6309 0004731 296.4433  63.6278 14.56392666528640
ITUPSAT1                
1 35935U 09051E   19250.70559421  .00000079  00000-0  29302-4 0  9996
2 35935  98.6091  61.1120 0007011 290.9652  69.0794 14.55549647528429
TISAT 1                 
1 36799U 10035E   19249.93923942  .00000204  00000-0  26638-4 0  9994
2 36799  98.1660  44.8023 0012359 176.6569 183.4733 14.91147536496523
M-CUBED & EXP-1 PRIME   
1 37855U 11061F   19250.74669683  .00000190  00000-0  17852-4 0  9990
2 37855 101.7106 187.9485 0173044 196.4506 163.1048 15.05563972428974
STRAND-1                
1 39090U 13009E   19250.17571525  .00000013  00000-0  19718-4 0  9998
2 39090  98.4819  94.7586 0010177  53.9836 306.2291 14.35095608341935
SOMP                    
1 39134U 13015E   19249.94605955  .00000863  00000-0  48482-4 0  9995
2 39134  64.8627 120.4050 0035467 289.8476  69.8830 15.20294900352417
BEESAT-3                
1 39135U 13015F   19250.86767160  .00000601  00000-0  39435-4 0  9994
2 39135  64.8689 136.8666 0032084 302.0326  57.7685 15.17582312352567
BEESAT-2                
1 39136U 13015G   19249.94669860  .00000789  00000-0  49514-4 0  9996
2 39136  64.8688 143.8890 0023795 304.7922  55.0965 15.16997396351959
NEE-01 PEGASO           
1 39151U 13018B   19250.80610775  .00000094  00000-0  19440-4 0  9998
2 39151  97.9732 346.6497 0015775 301.5430  58.4240 14.80067805343729
ESTCUBE 1               
1 39161U 13021C   19250.80614721  .00000190  00000-0  37934-4 0  9993
2 39161  97.9844 334.2512 0010652  70.2276 290.0076 14.72225115340305
POPACS 1                
1 39268U 13055D   19250.00193761  .00005516  00000-0  15286-3 0  9998
2 39268  81.0006 236.4412 0624201 346.1056  12.3597 14.37495346308573
POPACS 2                
1 39269U 13055E   19250.46582704  .00002138  00000-0  59842-4 0  9992
2 39269  81.0119 267.4722 0684138  66.3134 300.8289 14.24185837306769
POPACS 3                
1 39270U 13055F   19250.51710725  .00001503  00000-0  45085-4 0  9995
2 39270  81.0145 285.2516 0714557 117.7195 249.8327 14.16001964305635
ZACUBE-1 (TSHEPISOSAT)  
1 39417U 13066B   19249.96354810  .00000152  00000-0  25375-4 0  9995
2 39417  97.5627 258.9547 0060169 129.8657 230.7871 14.81142890312925
WNISAT-1                
1 39423U 13066H   19250.82190459  .00000105  00000-0  30099-4 0  9993
2 39423  97.7795 186.9228 0176546  60.2832 301.5815 14.53057023307231
TRITON-1                
1 39427U 13066M   19249.89322897  .00000170  00000-0  35347-4 0  9998
2 39427  97.6846 222.3498 0112271 268.7639  90.0703 14.67873833310106
GOMX-1                  
1 39430U 13066Q   19250.80822162  .00000248  00000-0  53830-4 0  9998
2 39430  97.7530 202.0461 0151625 358.9924   1.0957 14.59280106308433
CUBEBUG-2 (LO-74)       
1 39440U 13066AA  19250.43094670  .00000132  00000-0  25307-4 0  9993
2 39440  97.6066 244.1188 0080111 181.5855 178.5114 14.75880899311885
NEE-02 KRYSAOR          
1 39441U 13066AB  19250.45835492  .00000090  00000-0  19940-4 0  9990
2 39441  97.6112 241.8607 0081443 188.9002 171.0770 14.74925508311705
FUNCUBE-1 (AO-73)       
1 39444U 13066AE  19249.98720098  .00000192  00000-0  29805-4 0  9998
2 39444  97.5604 260.9997 0059402 123.4163 237.2752 14.81967578311828
UWE-3                   
1 39446U 13066AG  19249.95847140  .00000159  00000-0  27662-4 0  9997
2 39446  97.5838 250.7806 0070607 156.9581 203.4825 14.78415650310538
BRITE-CA1 (TORONTO)     
1 40020U 14033L   19250.59492100  .00000056  00000-0  18085-4 0  9991
2 40020  97.7422  89.9262 0086018 258.3549 100.7992 14.66585335279152
DUCHIFAT-1              
1 40021U 14033M   19250.29679226  .00000242  00000-0  30470-4 0  9994
2 40021  97.9226 175.1563 0013686 139.0007 221.2243 14.90672892283553
NANOSATC-BR1            
1 40024U 14033Q   19250.29903825  .00000166  00000-0  23214-4 0  9995
2 40024  97.9114 172.3735 0012941 142.1916 218.0213 14.89881228283441
QB50P1                  
1 40025U 14033R   19250.74620648  .00000176  00000-0  24688-4 0  9992
2 40025  97.9029 170.2926 0013068 147.0719 213.1314 14.88975776283384
QB50P2                  
1 40032U 14033Y   19249.83204888  .00000182  00000-0  25604-4 0  9998
2 40032  97.8949 167.4053 0012515 146.1079 214.0940 14.88508736283165
PERSEUS-M2              
1 40037U 14033AD  19250.20171039  .00000063  00000-0  13327-4 0  9994
2 40037  97.8865 163.6800 0014812 158.9513 201.2315 14.86473126282931
PERSEUS-M1              
1 40039U 14033AF  19250.20601712  .00000065  00000-0  13716-4 0  9996
2 40039  97.8846 162.7235 0014704 156.4923 203.6967 14.86093357282867
POLYITAN-1              
1 40042U 14033AJ  19250.48953450  .00000186  00000-0  25982-4 0  9991
2 40042  97.9109 170.3903 0015444 139.0857 221.1522 14.88691081283252
TIGRISAT                
1 40043U 14033AK  19250.86631983  .00000074  00000-0  18287-4 0  9994
2 40043  97.7463 115.1989 0059498 193.5148 166.4471 14.74287827280569
AEROCUBE 6A             
1 40045U 14033AM  19250.88119199  .00000150  00000-0  28926-4 0  9994
2 40045  97.7692 119.3481 0057314 185.8975 174.1567 14.75418255280536
AEROCUBE 6B             
1 40046U 14033AN  19250.14142535  .00000195  00000-0  35349-4 0  9990
2 40046  97.7623 118.1969 0056634 187.5361 172.5004 14.75400141280567
UKUBE-1                 
1 40074U 14037F   19250.73982851  .00000300  00000-0  43158-4 0  9998
2 40074  98.4453  57.3381 0004074 336.8483  23.2540 14.84090175279673
BRITE-PL2 (HEWELIUSZ)   
1 40119U 14049B   19250.20546789  .00000044  00000-0  11703-4 0  9995
2 40119  97.9041 340.1365 0016466 321.6612  38.3431 14.84421935273615
FIREBIRD 4              
1 40378U 15003C   19250.89957139  .00001134  00000-0  48382-4 0  9997
2 40378  99.1191 247.8813 0126757 179.3190 180.8235 15.19001042254253
GRIFEX                  
1 40379U 15003D   19250.87096155  .00000697  00000-0  34050-4 0  9998
2 40379  99.1192 241.4114 0134492 199.2697 160.3418 15.15634716253887
EXOCUBE (CP10)          
1 40380U 15003E   19250.89407923  .00000569  00000-0  30043-4 0  9997
2 40380  99.1222 237.9277 0139222 210.9232 148.3742 15.13643859253652
TIANWANG 1C (TW-1C)     
1 40926U 15051B   19250.73650458  .00012199  00000-0  16953-3 0  9997
2 40926  97.1283 296.8434 0009488  75.4784  64.0260 15.57089677222765
TIANWANG 1A (TW-1A)     
1 40928U 15051D   19250.86702722  .00003019  00000-0  74727-4 0  9990
2 40928  97.1402 280.3680 0011982 131.3789 353.7259 15.41133874221677
EXACTVIEW 9             
1 40936U 15052G   19250.47337129  .00000773  00000-0  19023-4 0  9994
2 40936   6.0023 205.1282 0010818 207.9609 151.9937 14.76504873213181
ATHENOXAT 1             
1 41168U 15077C   19250.49532992  .00001692  00000-0  53979-4 0  9995
2 41168  14.9889 343.8555 0011466 137.0405 223.0812 15.13742213206243
GALASSIA                
1 41170U 15077E   19250.40494186  .00001722  00000-0  54841-4 0  9994
2 41170  14.9893 337.3685 0012788 160.3679 199.7136 15.14070470206296
VELOX-II                
1 41171U 15077F   19250.61797032  .00001321  00000-0  37636-4 0  9992
2 41171  14.9921  11.0364 0008766  76.2040 283.9256 15.11284892206018
HORYU-4                 
1 41340U 16012D   19250.62019725  .00000435  00000-0  26288-4 0  9993
2 41340  31.0059 339.0702 0013926 212.5967 147.3810 15.01302809195186
E-ST@R-II               
1 41459U 16025D   19250.82409287  .00001112  00000-0  60208-4 0  9999
2 41459  98.1008 341.4131 0168845  85.7675 276.2815 15.05618908184757
AAUSAT 4                
1 41460U 16025E   19250.23272564  .00002291  00000-0  11686-3 0  9996
2 41460  98.0965 342.2355 0158610  79.7666 282.1415 15.07571612184809
DIWATA-1                
1 41463U 98067HT  19250.74084468  .00029884  00000-0  12850-3 0  9996
2 41463  51.6283 185.0509 0002530 101.3710 340.1550 15.84771143192614
BEESAT-4                
1 41619U 16040W   19249.85862738  .00001196  00000-0  53311-4 0  9998
2 41619  97.3607 310.5652 0013042 100.7767 259.4938 15.23270492166069
CANX-7                  
1 41788U 16059F   19250.82318510  .00004962  00000-0  74530-3 0  9997
2 41788  98.2426 327.5666 0031142 118.3027 242.1326 14.74669486157962
RAVAN                   
1 41849U 16067B   19249.80185718  .00000093  00000-0  12977-4 0  9991
2 41849  97.9224 350.1321 0009152 112.2889 247.9304 14.98281935153990
CELTEE 1                
1 41850U 16067C   19250.21526774  .00000380  00000-0  38218-4 0  9996
2 41850  97.9185 349.0516 0010212 113.5507 246.6788 14.97036705153973
